{"epoch":1784799577,"count":18318,"objects":[{"id":"65308","name":"HULIANWANG DIGUI-76","type":"PAYLOAD","l1":"1 65308U 25187D   26203.87285128 -.00000109  00000-0  31790-4 0  9994","l2":"2 65308  50.0015  78.0073 0000109  84.6328 275.4557 13.29324069 44441"},{"id":"65309","name":"HULIANWANG DIGUI-77","type":"PAYLOAD","l1":"1 65309U 25187E   26203.86439583 -.00000101  00000-0  49075-4 0  9997","l2":"2 65309  50.0049  78.0532 0000160 181.4927 178.5945 13.29323989 44441"},{"id":"65310","name":"HULIANWANG DIGUI-78","type":"PAYLOAD","l1":"1 65310U 25187F   26203.89792966 -.00000111  00000-0  29165-4 0  9998","l2":"2 65310  50.0114  77.7404 0000072  44.0706 316.0172 13.29323079 44453"},{"id":"65311","name":"HULIANWANG DIGUI-79","type":"PAYLOAD","l1":"1 65311U 25187G   26203.88115880 -.00000108  00000-0  34651-4 0  9994","l2":"2 65311  50.0044  78.1272 0000086   9.0759 351.0114 13.29319843 44446"},{"id":"65312","name":"HULIANWANG DIGUI-80","type":"PAYLOAD","l1":"1 65312U 25187H   26203.93124423 -.00000103  00000-0  45708-4 0  9994","l2":"2 65312  50.0034  77.7033 0000150 180.7420 179.3452 13.29323141 44453"},{"id":"65313","name":"HULIANWANG DIGUI-81","type":"PAYLOAD","l1":"1 65313U 25187J   26203.83945414 -.00000107  00000-0  36933-4 0  9999","l2":"2 65313  50.0074  77.9919 0000052  24.3614 335.7261 13.29319991 44456"},{"id":"65817","name":"HULIANWANG DIGUI-82","type":"PAYLOAD","l1":"1 65817U 25220A   26203.06761598  .00000022  00000-0  16751-4 0  9991","l2":"2 65817  86.4952  32.0765 0002260  97.4886 262.6505 13.24409699 39531"},{"id":"65818","name":"HULIANWANG DIGUI-83","type":"PAYLOAD","l1":"1 65818U 25220B   26203.81560867  .00000021  00000-0  13890-4 0  9991","l2":"2 65818  86.4976  31.8846 0002276  96.5047 263.6347 13.24410076 39638"},{"id":"65819","name":"HULIANWANG DIGUI-84","type":"PAYLOAD","l1":"1 65819U 25220C   26203.50582414  .00000018  00000-0  69852-5 0  9996","l2":"2 65819  86.4913  31.7962 0002231  97.5798 262.5590 13.24409871 39597"},{"id":"65820","name":"HULIANWANG DIGUI-85","type":"PAYLOAD","l1":"1 65820U 25220D   26203.80046590  .00000038  00000-0  55329-4 0  9996","l2":"2 65820  86.4974  31.8724 0002228 100.1303 260.0083 13.24408863 39637"},{"id":"65821","name":"HULIANWANG DIGUI-86","type":"PAYLOAD","l1":"1 65821U 25220E   26203.49084496  .00000036  00000-0  49997-4 0  9991","l2":"2 65821  86.4953  31.9072 0002015  84.3622 275.7742 13.24411615 39592"},{"id":"65995","name":"HULIANWANG DIGUI-87","type":"PAYLOAD","l1":"1 65995U 25231A   26203.87533550 -.00000118  00000-0  12965-4 0  9994","l2":"2 65995  50.0010  47.8331 0000427  20.6508 339.4382 13.29328337 37634"},{"id":"65996","name":"HULIANWANG DIGUI-88","type":"PAYLOAD","l1":"1 65996U 25231B   26203.58301785 -.00000117  00000-0  15597-4 0  9999","l2":"2 65996  49.9996  48.9279 0000448   1.0988 358.9885 13.29323992 37597"},{"id":"65997","name":"HULIANWANG DIGUI-89","type":"PAYLOAD","l1":"1 65997U 25231C   26202.58891427 -.00000116  00000-0  17773-4 0  9993","l2":"2 65997  49.9974  52.2977 0000490   5.0591 355.0285 13.29328227 37462"},{"id":"65998","name":"HULIANWANG DIGUI-90","type":"PAYLOAD","l1":"1 65998U 25231D   26203.85868852 -.00000107  00000-0  37587-4 0  9996","l2":"2 65998  50.0004  47.7342 0000486   3.5526 356.5350 13.29326645 37631"},{"id":"65999","name":"HULIANWANG DIGUI-91","type":"PAYLOAD","l1":"1 65999U 25231E   26203.92550771 -.00000108  00000-0  34774-4 0  9999","l2":"2 65999  50.0022  47.4646 0000473   5.2926 354.7951 13.29327261 37648"}]}