{"fetched_at":"2026-07-23T07:05:44.990Z","source":"https://celestrak.org/NORAD/elements/gp.php?NAME=HULIANWANG&FORMAT=JSON","constellation":"guowang","records":[{"OBJECT_NAME":"HULIANWANG DIGUI-76","OBJECT_ID":"2025-187D","EPOCH":"2026-07-22T20:56:54.350592","CLASSIFICATION_TYPE":"U","MEAN_MOTION":13.29324069,"ECCENTRICITY":0.00001086,"INCLINATION":50.0015,"RA_OF_ASC_NODE":78.0073,"ARG_OF_PERICENTER":84.6328,"MEAN_ANOMALY":275.4557,"EPHEMERIS_TYPE":0,"NORAD_CAT_ID":65308,"ELEMENT_SET_NO":999,"REV_AT_EPOCH":4444,"BSTAR":0.000031789685,"MEAN_MOTION_DOT":-0.00000109,"MEAN_MOTION_DDOT":0},{"OBJECT_NAME":"HULIANWANG DIGUI-77","OBJECT_ID":"2025-187E","EPOCH":"2026-07-22T20:44:43.799712","CLASSIFICATION_TYPE":"U","MEAN_MOTION":13.29323989,"ECCENTRICITY":0.00001595,"INCLINATION":50.0049,"RA_OF_ASC_NODE":78.0532,"ARG_OF_PERICENTER":181.4927,"MEAN_ANOMALY":178.5945,"EPHEMERIS_TYPE":0,"NORAD_CAT_ID":65309,"ELEMENT_SET_NO":999,"REV_AT_EPOCH":4444,"BSTAR":0.000049074569,"MEAN_MOTION_DOT":-0.00000101,"MEAN_MOTION_DDOT":0},{"OBJECT_NAME":"HULIANWANG DIGUI-78","OBJECT_ID":"2025-187F","EPOCH":"2026-07-22T21:33:01.122624","CLASSIFICATION_TYPE":"U","MEAN_MOTION":13.29323079,"ECCENTRICITY":0.00000718,"INCLINATION":50.0114,"RA_OF_ASC_NODE":77.7404,"ARG_OF_PERICENTER":44.0706,"MEAN_ANOMALY":316.0172,"EPHEMERIS_TYPE":0,"NORAD_CAT_ID":65310,"ELEMENT_SET_NO":999,"REV_AT_EPOCH":4445,"BSTAR":0.000029165474,"MEAN_MOTION_DOT":-0.00000111,"MEAN_MOTION_DDOT":0},{"OBJECT_NAME":"HULIANWANG DIGUI-79","OBJECT_ID":"2025-187G","EPOCH":"2026-07-22T21:08:52.120320","CLASSIFICATION_TYPE":"U","MEAN_MOTION":13.29319843,"ECCENTRICITY":0.00000859,"INCLINATION":50.0044,"RA_OF_ASC_NODE":78.1272,"ARG_OF_PERICENTER":9.0759,"MEAN_ANOMALY":351.0114,"EPHEMERIS_TYPE":0,"NORAD_CAT_ID":65311,"ELEMENT_SET_NO":999,"REV_AT_EPOCH":4444,"BSTAR":0.000034651411,"MEAN_MOTION_DOT":-0.00000108,"MEAN_MOTION_DDOT":0},{"OBJECT_NAME":"HULIANWANG DIGUI-80","OBJECT_ID":"2025-187H","EPOCH":"2026-07-22T22:20:59.501472","CLASSIFICATION_TYPE":"U","MEAN_MOTION":13.29323141,"ECCENTRICITY":0.00001497,"INCLINATION":50.0034,"RA_OF_ASC_NODE":77.7033,"ARG_OF_PERICENTER":180.742,"MEAN_ANOMALY":179.3452,"EPHEMERIS_TYPE":0,"NORAD_CAT_ID":65312,"ELEMENT_SET_NO":999,"REV_AT_EPOCH":4445,"BSTAR":0.00004570829,"MEAN_MOTION_DOT":-0.00000103,"MEAN_MOTION_DDOT":0},{"OBJECT_NAME":"HULIANWANG DIGUI-81","OBJECT_ID":"2025-187J","EPOCH":"2026-07-22T20:08:48.837696","CLASSIFICATION_TYPE":"U","MEAN_MOTION":13.29319991,"ECCENTRICITY":0.00000522,"INCLINATION":50.0074,"RA_OF_ASC_NODE":77.9919,"ARG_OF_PERICENTER":24.3614,"MEAN_ANOMALY":335.7261,"EPHEMERIS_TYPE":0,"NORAD_CAT_ID":65313,"ELEMENT_SET_NO":999,"REV_AT_EPOCH":4445,"BSTAR":0.000036933087,"MEAN_MOTION_DOT":-0.00000107,"MEAN_MOTION_DDOT":0},{"OBJECT_NAME":"HULIANWANG DIGUI-82","OBJECT_ID":"2025-220A","EPOCH":"2026-07-22T01:37:22.020672","CLASSIFICATION_TYPE":"U","MEAN_MOTION":13.24409699,"ECCENTRICITY":0.00022599,"INCLINATION":86.4952,"RA_OF_ASC_NODE":32.0765,"ARG_OF_PERICENTER":97.4886,"MEAN_ANOMALY":262.6505,"EPHEMERIS_TYPE":0,"NORAD_CAT_ID":65817,"ELEMENT_SET_NO":999,"REV_AT_EPOCH":3953,"BSTAR":0.000016751368,"MEAN_MOTION_DOT":2.2e-7,"MEAN_MOTION_DDOT":0},{"OBJECT_NAME":"HULIANWANG DIGUI-83","OBJECT_ID":"2025-220B","EPOCH":"2026-07-22T19:34:28.589088","CLASSIFICATION_TYPE":"U","MEAN_MOTION":13.24410076,"ECCENTRICITY":0.00022761,"INCLINATION":86.4976,"RA_OF_ASC_NODE":31.8846,"ARG_OF_PERICENTER":96.5047,"MEAN_ANOMALY":263.6347,"EPHEMERIS_TYPE":0,"NORAD_CAT_ID":65818,"ELEMENT_SET_NO":999,"REV_AT_EPOCH":3963,"BSTAR":0.000013890422,"MEAN_MOTION_DOT":2.1e-7,"MEAN_MOTION_DDOT":0},{"OBJECT_NAME":"HULIANWANG DIGUI-84","OBJECT_ID":"2025-220C","EPOCH":"2026-07-22T12:08:23.205696","CLASSIFICATION_TYPE":"U","MEAN_MOTION":13.24409871,"ECCENTRICITY":0.00022306,"INCLINATION":86.4913,"RA_OF_ASC_NODE":31.7962,"ARG_OF_PERICENTER":97.5798,"MEAN_ANOMALY":262.559,"EPHEMERIS_TYPE":0,"NORAD_CAT_ID":65819,"ELEMENT_SET_NO":999,"REV_AT_EPOCH":3959,"BSTAR":0.000006985193,"MEAN_MOTION_DOT":1.8e-7,"MEAN_MOTION_DDOT":0},{"OBJECT_NAME":"HULIANWANG DIGUI-85","OBJECT_ID":"2025-220D","EPOCH":"2026-07-22T19:12:40.253760","CLASSIFICATION_TYPE":"U","MEAN_MOTION":13.24408863,"ECCENTRICITY":0.00022285,"INCLINATION":86.4974,"RA_OF_ASC_NODE":31.8724,"ARG_OF_PERICENTER":100.1303,"MEAN_ANOMALY":260.0083,"EPHEMERIS_TYPE":0,"NORAD_CAT_ID":65820,"ELEMENT_SET_NO":999,"REV_AT_EPOCH":3963,"BSTAR":0.000055329366,"MEAN_MOTION_DOT":3.8e-7,"MEAN_MOTION_DDOT":0},{"OBJECT_NAME":"HULIANWANG DIGUI-86","OBJECT_ID":"2025-220E","EPOCH":"2026-07-22T11:46:49.004544","CLASSIFICATION_TYPE":"U","MEAN_MOTION":13.24411615,"ECCENTRICITY":0.00020154,"INCLINATION":86.4953,"RA_OF_ASC_NODE":31.9072,"ARG_OF_PERICENTER":84.3622,"MEAN_ANOMALY":275.7742,"EPHEMERIS_TYPE":0,"NORAD_CAT_ID":65821,"ELEMENT_SET_NO":999,"REV_AT_EPOCH":3959,"BSTAR":0.000049997266,"MEAN_MOTION_DOT":3.6e-7,"MEAN_MOTION_DDOT":0},{"OBJECT_NAME":"HULIANWANG DIGUI-87","OBJECT_ID":"2025-231A","EPOCH":"2026-07-22T21:00:28.987200","CLASSIFICATION_TYPE":"U","MEAN_MOTION":13.29328337,"ECCENTRICITY":0.00004273,"INCLINATION":50.001,"RA_OF_ASC_NODE":47.8331,"ARG_OF_PERICENTER":20.6508,"MEAN_ANOMALY":339.4382,"EPHEMERIS_TYPE":0,"NORAD_CAT_ID":65995,"ELEMENT_SET_NO":999,"REV_AT_EPOCH":3763,"BSTAR":0.000012964976,"MEAN_MOTION_DOT":-0.00000118,"MEAN_MOTION_DDOT":0},{"OBJECT_NAME":"HULIANWANG DIGUI-88","OBJECT_ID":"2025-231B","EPOCH":"2026-07-22T13:59:32.742240","CLASSIFICATION_TYPE":"U","MEAN_MOTION":13.29323992,"ECCENTRICITY":0.00004483,"INCLINATION":49.9996,"RA_OF_ASC_NODE":48.9279,"ARG_OF_PERICENTER":1.0988,"MEAN_ANOMALY":358.9885,"EPHEMERIS_TYPE":0,"NORAD_CAT_ID":65996,"ELEMENT_SET_NO":999,"REV_AT_EPOCH":3759,"BSTAR":0.000015597029,"MEAN_MOTION_DOT":-0.00000117,"MEAN_MOTION_DDOT":0},{"OBJECT_NAME":"HULIANWANG DIGUI-89","OBJECT_ID":"2025-231C","EPOCH":"2026-07-21T14:08:02.192928","CLASSIFICATION_TYPE":"U","MEAN_MOTION":13.29328227,"ECCENTRICITY":0.000049,"INCLINATION":49.9974,"RA_OF_ASC_NODE":52.2977,"ARG_OF_PERICENTER":5.0591,"MEAN_ANOMALY":355.0285,"EPHEMERIS_TYPE":0,"NORAD_CAT_ID":65997,"ELEMENT_SET_NO":999,"REV_AT_EPOCH":3746,"BSTAR":0.000017773219,"MEAN_MOTION_DOT":-0.00000116,"MEAN_MOTION_DDOT":0},{"OBJECT_NAME":"HULIANWANG DIGUI-90","OBJECT_ID":"2025-231D","EPOCH":"2026-07-22T20:36:30.688128","CLASSIFICATION_TYPE":"U","MEAN_MOTION":13.29326645,"ECCENTRICITY":0.00004864,"INCLINATION":50.0004,"RA_OF_ASC_NODE":47.7342,"ARG_OF_PERICENTER":3.5526,"MEAN_ANOMALY":356.535,"EPHEMERIS_TYPE":0,"NORAD_CAT_ID":65998,"ELEMENT_SET_NO":999,"REV_AT_EPOCH":3763,"BSTAR":0.000037587166,"MEAN_MOTION_DOT":-0.00000107,"MEAN_MOTION_DDOT":0},{"OBJECT_NAME":"HULIANWANG DIGUI-91","OBJECT_ID":"2025-231E","EPOCH":"2026-07-22T22:12:43.866144","CLASSIFICATION_TYPE":"U","MEAN_MOTION":13.29327261,"ECCENTRICITY":0.00004735,"INCLINATION":50.0022,"RA_OF_ASC_NODE":47.4646,"ARG_OF_PERICENTER":5.2926,"MEAN_ANOMALY":354.7951,"EPHEMERIS_TYPE":0,"NORAD_CAT_ID":65999,"ELEMENT_SET_NO":999,"REV_AT_EPOCH":3764,"BSTAR":0.000034774089,"MEAN_MOTION_DOT":-0.00000108,"MEAN_MOTION_DDOT":0}]}
